NORAD_CAT_ID,OBJECT_NAME,OBJECT_TYPE,EPOCH,MEAN_MOTION,ECCENTRICITY,INCLINATION,RA_OF_ASC_NODE,ARG_OF_PERICENTER,MEAN_ANOMALY,BSTAR,MEAN_MOTION_DOT,MEAN_MOTION_DDOT,TLE_LINE0,TLE_LINE1,TLE_LINE2,SEMIMAJOR_AXIS,PERIOD,APOGEE,PERIGEE,DECAYED
52602.0,STARLINK-4012,PAYLOAD,2022-07-20 14:00:01,15.08029054,0.0001613,53.215,121.1526,53.2632,165.1258,0.00061405,9.286e-05,0.0,0 STARLINK-4012,1 52602U 22052E   22201.58334491  .00009286  00000-0  61405-3 0  9994,2 52602  53.2150 121.1526 0001613  53.2632 165.1258 15.08029054  1309,6920.36,95.489,543.341,541.109,0.0
52602.0,STARLINK-4012,PAYLOAD,2022-07-20 22:00:01,15.08026309,0.0001716,53.215,119.6589,54.9378,174.0857,-0.0016454,-0.00025806,0.0,0 STARLINK-4012,1 52602U 22052E   22201.91668981 -.00025806  00000-0 -16454-2 0  9996,2 52602  53.2150 119.6589 0001716  54.9378 174.0857 15.08026309 10774,6920.369000000002,95.489,543.4209999999998,541.0459999999998,0.0
52602.0,STARLINK-4012,PAYLOAD,2022-07-21 14:00:01,15.08002211,0.0001675999999999,53.2146,116.6691,56.5532,193.6843,0.0026175,0.00040665,0.0,0 STARLINK-4012,1 52602U 22052E   22202.58335648  .00040665  00000-0  26175-2 0  9990,2 52602  53.2146 116.6691 0001676  56.5532 193.6843 15.08002211 10885,6920.441999999999,95.491,543.467,541.1469999999998,0.0
52602.0,STARLINK-4012,PAYLOAD,2022-07-21 22:00:00,15.08046839,0.0001706,53.2147,115.1755,56.0404,204.7355,-0.0040676,-0.0006307999999999,0.0,0 STARLINK-4012,1 52602U 22052E   22202.91667824 -.00063080  00000-0 -40676-2 0  9991,2 52602  53.2147 115.1755 0001706  56.0404 204.7355 15.08046839  1301,6920.306,95.488,543.351,540.99,0.0
52602.0,STARLINK-4012,PAYLOAD,2022-07-22 06:00:00,15.07997933,0.0001764,53.2143,113.6818,49.6661,221.7295,0.0024697,0.00038336,0.0,0 STARLINK-4012,1 52602U 22052E   22203.25001157  .00038336  00000-0  24697-2 0  9999,2 52602  53.2143 113.6818 0001764  49.6661 221.7295 15.07997933  1308,6920.455,95.491,543.5409999999998,541.1,0.0
52602.0,STARLINK-4012,PAYLOAD,2022-07-22 22:00:00,15.08048995,0.0001699999999999,53.2145,110.692,56.0426,236.5704,-0.0013039,-0.00020537,0.0,0 STARLINK-4012,1 52602U 22052E   22203.91667824 -.00020537  00000-0 -13039-2 0  9995,2 52602  53.2145 110.6920 0001700  56.0426 236.5704 15.08048995  1307,6920.299,95.488,543.341,540.988,0.0
52602.0,STARLINK-4012,PAYLOAD,2022-07-23 08:00:01,15.08048078,0.0001753,53.2147,108.8231,50.2709,345.6285,-0.0046046,-0.00071291,0.0,0 STARLINK-4012,1 52602U 22052E   22204.33334491 -.00071291  00000-0 -46046-2 0  9990,2 52602  53.2147 108.8231 0001753  50.2709 345.6285 15.08048078 11142,6920.302,95.488,543.38,540.9540000000002,0.0
52602.0,STARLINK-4012,PAYLOAD,2022-07-23 14:00:01,15.07970328,0.0001715,53.2146,107.7018,57.5864,256.3375,0.0027927,0.00043385,0.0,0 STARLINK-4012,1 52602U 22052E   22204.58335648  .00043385  00000-0  27927-2 0  9990,2 52602  53.2146 107.7018 0001715  57.5864 256.3375 15.07970328  1308,6920.54,95.493,543.592,541.2180000000002,0.0
52602.0,STARLINK-4012,PAYLOAD,2022-07-23 22:00:00,15.08012947,0.0001851,53.2148,106.2085,56.2721,268.1596,-0.0011236,-0.00017726,0.0,0 STARLINK-4012,1 52602U 22052E   22204.91667824 -.00017726  00000-0 -11236-2 0  9999,2 52602  53.2148 106.2085 0001851  56.2721 268.1596 15.08012947 11231,6920.41,95.49,543.555,540.994,0.0
52602.0,STARLINK-4012,PAYLOAD,2022-07-24 14:00:01,15.07988383,0.0001809,53.2152,103.2185,58.7784,286.8485,0.0034899,0.000544,0.0,0 STARLINK-4012,1 52602U 22052E   22205.58334491  .00054400  00000-0  34899-2 0  9992,2 52602  53.2152 103.2185 0001809  58.7784 286.8485 15.07988383  1309,6920.485,95.491,543.602,541.0980000000002,0.0
52602.0,STARLINK-4012,PAYLOAD,2022-07-24 22:00:00,15.08033403,0.0001958,53.2154,101.7253,56.7717,299.4482,-0.0013134,-0.00020675,0.0,0 STARLINK-4012,1 52602U 22052E   22205.91667824 -.00020675  00000-0 -13134-2 0  9996,2 52602  53.2154 101.7253 0001958  56.7717 299.4482 15.08033403  1301,6920.347,95.489,543.567,540.857,0.0
52602.0,STARLINK-4012,PAYLOAD,2022-07-25 06:00:00,15.08027882,0.0001991,53.2154,100.2312,52.9314,313.9014,0.00047705,7.148e-05,0.0,0 STARLINK-4012,1 52602U 22052E   22206.25001157  .00007148  00000-0  47705-3 0  9995,2 52602  53.2154 100.2312 0001991  52.9314 313.9014 15.08027882 11431,6920.364000000001,95.489,543.607,540.851,0.0
52602.0,STARLINK-4012,PAYLOAD,2022-07-25 14:00:01,15.08017295,0.0001826,53.2158,98.7351,59.4001,318.0634,0.00048982,7.345e-05,0.0,0 STARLINK-4012,1 52602U 22052E   22206.58334491  .00007345  00000-0  48982-3 0  9998,2 52602  53.2158  98.7351 0001826  59.4001 318.0634 15.08017295  1307,6920.396,95.49,543.525,540.998,0.0
52602.0,STARLINK-4012,PAYLOAD,2022-07-25 22:00:00,15.08024045,0.000193,53.216,97.242,55.9789,332.0943,-0.0014022,-0.00022044,0.0,0 STARLINK-4012,1 52602U 22052E   22206.91667824 -.00022044  00000-0 -14022-2 0  9996,2 52602  53.2160  97.2420 0001930  55.9789 332.0943 15.08024045 11537,6920.376,95.489,543.576,540.905,0.0
52602.0,STARLINK-4012,PAYLOAD,2022-07-26 14:00:01,15.07999087,0.000181,53.2161,94.2517,60.6742,348.6194,0.0032607,0.00050797,0.0,0 STARLINK-4012,1 52602U 22052E   22207.58334491  .00050797  00000-0  32607-2 0  9994,2 52602  53.2161  94.2517 0001810  60.6742 348.6194 15.07999087  1302,6920.4519999999975,95.491,543.57,541.064,0.0
52602.0,STARLINK-4012,PAYLOAD,2022-07-26 22:00:00,15.08039676,0.0001949,53.2162,92.7588,57.4834,2.4177,-0.0013513,-0.00021266,0.0,0 STARLINK-4012,1 52602U 22052E   22207.91667824 -.00021266  00000-0 -13513-2 0  9996,2 52602  53.2162  92.7588 0001949  57.4834   2.4177 15.08039676  1309,6920.328,95.488,543.5419999999998,540.844,0.0
52602.0,STARLINK-4012,PAYLOAD,2022-07-27 06:00:02,15.08051398,0.0001921999999999,53.2158,91.2643,54.4354,16.1467,-0.0025685,-0.00040071,0.0,0 STARLINK-4012,1 52602U 22052E   22208.25002315 -.00040071  00000-0 -25685-2 0  9990,2 52602  53.2158  91.2643 0001922  54.4354  16.1467 15.08051398 11732,6920.292,95.487,543.487,540.827,0.0
52602.0,STARLINK-4012,PAYLOAD,2022-07-27 14:00:01,15.07995341,0.0001713,53.216,89.7684,61.5145,19.6454,0.0023884,0.00037055,0.0,0 STARLINK-4012,1 52602U 22052E   22208.58334491  .00037055  00000-0  23884-2 0  9994,2 52602  53.2160  89.7684 0001713  61.5145  19.6454 15.07995341  1307,6920.4630000000025,95.491,543.514,541.143,0.0
52602.0,STARLINK-4012,PAYLOAD,2022-07-27 22:00:00,15.08024489,0.0001849,53.2158,88.2756,57.6188,34.1381,-0.0012337,-0.00019437,0.0,0 STARLINK-4012,1 52602U 22052E   22208.91667824 -.00019437  00000-0 -12337-2 0  9997,2 52602  53.2158  88.2756 0001849  57.6188  34.1381 15.08024489  1309,6920.374,95.489,543.519,540.96,0.0
52602.0,STARLINK-4012,PAYLOAD,2022-07-28 00:00:00,15.08010717,0.0001881,53.2159,87.9023,56.3938,128.0188,0.00059996,9.061e-05,0.0,0 STARLINK-4012,1 52602U 22052E   22209.00001157  .00009061  00000-0  59996-3 0  9992,2 52602  53.2159  87.9023 0001881  56.3938 128.0188 15.08010717 11845,6920.416,95.49,543.5830000000002,540.98,0.0
52602.0,STARLINK-4012,PAYLOAD,2022-07-28 14:00:01,15.08005521,0.0001726,53.2154,85.285,63.9839,48.9901,0.002646,0.00041118,0.0,0 STARLINK-4012,1 52602U 22052E   22209.58334491  .00041118  00000-0  26460-2 0  9993,2 52602  53.2154  85.2850 0001726  63.9839  48.9901 15.08005521  1301,6920.432,95.49,543.492,541.1030000000002,0.0
52602.0,STARLINK-4012,PAYLOAD,2022-07-28 22:00:00,15.08033256,0.0001853,53.2152,83.7922,59.56100000000001,64.0245,-0.00093997,-0.0001489,0.0,0 STARLINK-4012,1 52602U 22052E   22209.91667824 -.00014890  00000-0 -93997-3 0  9998,2 52602  53.2152  83.7922 0001853  59.5610  64.0245 15.08033256  1307,6920.347,95.489,543.495,540.93,0.0
52602.0,STARLINK-4012,PAYLOAD,2022-07-29 06:00:00,15.08054491,0.0001813,53.2148,82.2973,57.6466,76.5497,-0.0042599,-0.00066035,0.0,0 STARLINK-4012,1 52602U 22052E   22210.25001157 -.00066035  00000-0 -42599-2 0  9997,2 52602  53.2148  82.2973 0001813  57.6466  76.5497 15.08054491 12039,6920.281999999997,95.487,543.4019999999998,540.893,0.0
52602.0,STARLINK-4012,PAYLOAD,2022-07-29 14:00:01,15.0799229,0.000167,53.2149,80.8014,64.3549,80.4698,0.0022354,0.00034648,0.0,0 STARLINK-4012,1 52602U 22052E   22210.58334491  .00034648  00000-0  22354-2 0  9993,2 52602  53.2149  80.8014 0001670  64.3549  80.4698 15.07992290  1300,6920.473000000001,95.491,543.493,541.182,0.0
52602.0,STARLINK-4012,PAYLOAD,2022-07-29 22:00:00,15.08010482,0.0001815,53.2147,79.3086,59.0533,96.3619,-0.00070751,-0.00011277,0.0,0 STARLINK-4012,1 52602U 22052E   22210.91667824 -.00011277  00000-0 -70751-3 0  9999,2 52602  53.2147  79.3086 0001815  59.0533  96.3619 15.08010482  1309,6920.417,95.49,543.538,541.026,0.0
52602.0,STARLINK-4012,PAYLOAD,2022-07-30 14:00:01,15.08004771,0.0001744,53.2146,76.3176,65.4703,111.1414,0.0019477999999999,0.00030145,0.0,0 STARLINK-4012,1 52602U 22052E   22211.58334491  .00030145  00000-0  19478-2 0  9995,2 52602  53.2146  76.3176 0001744  65.4703 111.1414 15.08004771 12233,6920.435,95.49,543.506,541.0930000000002,0.0
52602.0,STARLINK-4012,PAYLOAD,2022-07-30 22:00:00,15.08017336,0.0001894,53.2146,74.8248,59.6102,127.6067,-0.00031339,-5.159e-05,0.0,0 STARLINK-4012,1 52602U 22052E   22211.91667824 -.00005159  00000-0 -31339-3 0  9991,2 52602  53.2146  74.8248 0001894  59.6102 127.6067 15.08017336  1303,6920.396,95.49,543.572,540.95,0.0
52602.0,STARLINK-4012,PAYLOAD,2022-07-31 06:00:02,15.08037648,0.0001851,53.2146,73.3294,59.2706,138.6094,-0.0019907,-0.00031148,0.0,0 STARLINK-4012,1 52602U 22052E   22212.25002315 -.00031148  00000-0 -19907-2 0  9990,2 52602  53.2146  73.3294 0001851  59.2706 138.6094 15.08037648 12332,6920.334,95.488,543.48,540.918,0.0
52602.0,STARLINK-4012,PAYLOAD,2022-07-31 14:00:01,15.08018297,0.0001823,53.2148,71.8337,66.1323,142.3045,0.0017494,0.00027043,0.0,0 STARLINK-4012,1 52602U 22052E   22212.58334491  .00027043  00000-0  17494-2 0  9995,2 52602  53.2148  71.8337 0001823  66.1323 142.3045 15.08018297  1308,6920.393,95.49,543.52,540.997,0.0
